[{"OBJECT_NAME":"STARLINK-5906","OBJECT_ID":"2023-037BA","EPOCH":"2026-03-09T21:59:01.733856","MEAN_MOTION":14.98328179,"ECCENTRICITY":0.00026796,"INCLINATION":69.9984,"RA_OF_ASC_NODE":264.0177,"ARG_OF_PERICENTER":261.8106,"MEAN_ANOMALY":98.2749,"EPHEMERIS_TYPE":0,"CLASSIFICATION_TYPE":"U","NORAD_CAT_ID":55962,"ELEMENT_SET_NO":999,"REV_AT_EPOCH":16450,"BSTAR":-1.06104e-6,"MEAN_MOTION_DOT":-1.06e-6,"MEAN_MOTION_DDOT":0},{"OBJECT_NAME":"SL-16 DEB","OBJECT_ID":"1992-093L","EPOCH":"2026-03-09T13:43:05.820096","MEAN_MOTION":14.92566733,"ECCENTRICITY":0.00224926,"INCLINATION":70.8231,"RA_OF_ASC_NODE":106.9008,"ARG_OF_PERICENTER":139.8913,"MEAN_ANOMALY":15.7142,"EPHEMERIS_TYPE":0,"CLASSIFICATION_TYPE":"U","NORAD_CAT_ID":22296,"ELEMENT_SET_NO":999,"REV_AT_EPOCH":72300,"BSTAR":0.0028358785,"MEAN_MOTION_DOT":0.00029386,"MEAN_MOTION_DDOT":0}]
